{"fetched_at":"2026-07-18T06:27:47.409Z","source":"https://celestrak.org/NORAD/elements/gp.php?GROUP=planet&FORMAT=JSON","constellation":"superdove","records":[{"OBJECT_NAME":"FLOCK 4BE-17","OBJECT_ID":"2024-149AA","EPOCH":"2026-07-17T22:48:47.990016","CLASSIFICATION_TYPE":"U","MEAN_MOTION":15.4062236,"ECCENTRICITY":0.00045536,"INCLINATION":97.3762,"RA_OF_ASC_NODE":282.5799,"ARG_OF_PERICENTER":139.8515,"MEAN_ANOMALY":220.3069,"EPHEMERIS_TYPE":0,"NORAD_CAT_ID":60492,"ELEMENT_SET_NO":999,"REV_AT_EPOCH":10699,"BSTAR":0.00022951701,"MEAN_MOTION_DOT":0.00009265,"MEAN_MOTION_DDOT":0},{"OBJECT_NAME":"FLOCK 4BE-22","OBJECT_ID":"2024-149AC","EPOCH":"2026-07-17T18:35:08.496960","CLASSIFICATION_TYPE":"U","MEAN_MOTION":15.4203594,"ECCENTRICITY":0.00048707,"INCLINATION":97.3728,"RA_OF_ASC_NODE":282.6432,"ARG_OF_PERICENTER":146.6652,"MEAN_ANOMALY":213.4902,"EPHEMERIS_TYPE":0,"NORAD_CAT_ID":60494,"ELEMENT_SET_NO":999,"REV_AT_EPOCH":10701,"BSTAR":0.00021877572,"MEAN_MOTION_DOT":0.00009253,"MEAN_MOTION_DDOT":0},{"OBJECT_NAME":"FLOCK 4BE-34","OBJECT_ID":"2024-149AD","EPOCH":"2026-07-17T19:00:31.135392","CLASSIFICATION_TYPE":"U","MEAN_MOTION":15.41999308,"ECCENTRICITY":0.00050489,"INCLINATION":97.378,"RA_OF_ASC_NODE":283.5025,"ARG_OF_PERICENTER":154.1697,"MEAN_ANOMALY":205.9803,"EPHEMERIS_TYPE":0,"NORAD_CAT_ID":60495,"ELEMENT_SET_NO":999,"REV_AT_EPOCH":10704,"BSTAR":0.00020779683,"MEAN_MOTION_DOT":0.00008773,"MEAN_MOTION_DDOT":0},{"OBJECT_NAME":"FLOCK 4BE-32","OBJECT_ID":"2024-149AF","EPOCH":"2026-07-17T19:18:00.575712","CLASSIFICATION_TYPE":"U","MEAN_MOTION":15.43141684,"ECCENTRICITY":0.00051145,"INCLINATION":97.3713,"RA_OF_ASC_NODE":283.0829,"ARG_OF_PERICENTER":151.1661,"MEAN_ANOMALY":208.987,"EPHEMERIS_TYPE":0,"NORAD_CAT_ID":60497,"ELEMENT_SET_NO":999,"REV_AT_EPOCH":10705,"BSTAR":0.00023401827,"MEAN_MOTION_DOT":0.0001028,"MEAN_MOTION_DDOT":0},{"OBJECT_NAME":"FLOCK 4BE-11","OBJECT_ID":"2024-149AK","EPOCH":"2026-07-17T18:47:19.078944","CLASSIFICATION_TYPE":"U","MEAN_MOTION":15.43931788,"ECCENTRICITY":0.00052033,"INCLINATION":97.3691,"RA_OF_ASC_NODE":283.3204,"ARG_OF_PERICENTER":151.4241,"MEAN_ANOMALY":208.7293,"EPHEMERIS_TYPE":0,"NORAD_CAT_ID":60501,"ELEMENT_SET_NO":999,"REV_AT_EPOCH":10707,"BSTAR":0.00022754362,"MEAN_MOTION_DOT":0.00010264,"MEAN_MOTION_DDOT":0},{"OBJECT_NAME":"FLOCK 4BE-24","OBJECT_ID":"2024-149AP","EPOCH":"2026-07-17T12:10:01.261056","CLASSIFICATION_TYPE":"U","MEAN_MOTION":15.44157393,"ECCENTRICITY":0.0005185,"INCLINATION":97.3708,"RA_OF_ASC_NODE":283.3103,"ARG_OF_PERICENTER":162.867,"MEAN_ANOMALY":197.2755,"EPHEMERIS_TYPE":0,"NORAD_CAT_ID":60505,"ELEMENT_SET_NO":999,"REV_AT_EPOCH":10704,"BSTAR":0.00025243,"MEAN_MOTION_DOT":0.00011485,"MEAN_MOTION_DDOT":0},{"OBJECT_NAME":"FLOCK 4BE-29","OBJECT_ID":"2024-149AT","EPOCH":"2026-07-17T16:33:38.176416","CLASSIFICATION_TYPE":"U","MEAN_MOTION":15.45608628,"ECCENTRICITY":0.00037443,"INCLINATION":97.3805,"RA_OF_ASC_NODE":285.0482,"ARG_OF_PERICENTER":170.4207,"MEAN_ANOMALY":189.7115,"EPHEMERIS_TYPE":0,"NORAD_CAT_ID":60509,"ELEMENT_SET_NO":999,"REV_AT_EPOCH":10712,"BSTAR":0.0004866147,"MEAN_MOTION_DOT":0.00023375,"MEAN_MOTION_DDOT":0},{"OBJECT_NAME":"FLOCK 4BE-2","OBJECT_ID":"2024-149AV","EPOCH":"2026-07-16T19:13:20.797824","CLASSIFICATION_TYPE":"U","MEAN_MOTION":15.56038813,"ECCENTRICITY":0.00053637,"INCLINATION":97.3829,"RA_OF_ASC_NODE":286.014,"ARG_OF_PERICENTER":168.9366,"MEAN_ANOMALY":191.2008,"EPHEMERIS_TYPE":0,"NORAD_CAT_ID":60511,"ELEMENT_SET_NO":999,"REV_AT_EPOCH":10710,"BSTAR":0.00061822673,"MEAN_MOTION_DOT":0.00043143,"MEAN_MOTION_DDOT":0},{"OBJECT_NAME":"FLOCK 4BE-13","OBJECT_ID":"2024-149AW","EPOCH":"2026-07-17T18:42:43.392096","CLASSIFICATION_TYPE":"U","MEAN_MOTION":15.42659205,"ECCENTRICITY":0.00052767,"INCLINATION":97.3713,"RA_OF_ASC_NODE":283.5247,"ARG_OF_PERICENTER":148.2418,"MEAN_ANOMALY":211.9148,"EPHEMERIS_TYPE":0,"NORAD_CAT_ID":60512,"ELEMENT_SET_NO":999,"REV_AT_EPOCH":10708,"BSTAR":0.00018012651,"MEAN_MOTION_DOT":0.00007763,"MEAN_MOTION_DDOT":0},{"OBJECT_NAME":"FLOCK 4BE-27","OBJECT_ID":"2024-149AX","EPOCH":"2026-07-17T21:42:00.144576","CLASSIFICATION_TYPE":"U","MEAN_MOTION":15.34946092,"ECCENTRICITY":0.00043059,"INCLINATION":97.3818,"RA_OF_ASC_NODE":280.7796,"ARG_OF_PERICENTER":172.7036,"MEAN_ANOMALY":187.4271,"EPHEMERIS_TYPE":0,"NORAD_CAT_ID":60513,"ELEMENT_SET_NO":999,"REV_AT_EPOCH":10685,"BSTAR":0.00015872186,"MEAN_MOTION_DOT":0.000053,"MEAN_MOTION_DDOT":0},{"OBJECT_NAME":"FLOCK 4BE-9","OBJECT_ID":"2024-149AY","EPOCH":"2026-07-16T16:42:28.181664","CLASSIFICATION_TYPE":"U","MEAN_MOTION":15.41640499,"ECCENTRICITY":0.00038347,"INCLINATION":97.3789,"RA_OF_ASC_NODE":282.2704,"ARG_OF_PERICENTER":166.7214,"MEAN_ANOMALY":193.4134,"EPHEMERIS_TYPE":0,"NORAD_CAT_ID":60514,"ELEMENT_SET_NO":999,"REV_AT_EPOCH":10686,"BSTAR":0.00028512528,"MEAN_MOTION_DOT":0.00011929,"MEAN_MOTION_DDOT":0},{"OBJECT_NAME":"FLOCK 4BE-6","OBJECT_ID":"2024-149BA","EPOCH":"2026-07-17T18:55:09.692832","CLASSIFICATION_TYPE":"U","MEAN_MOTION":15.40361316,"ECCENTRICITY":0.00045535,"INCLINATION":97.3785,"RA_OF_ASC_NODE":282.6733,"ARG_OF_PERICENTER":165.3197,"MEAN_ANOMALY":194.8183,"EPHEMERIS_TYPE":0,"NORAD_CAT_ID":60516,"ELEMENT_SET_NO":999,"REV_AT_EPOCH":10698,"BSTAR":0.00019630579,"MEAN_MOTION_DOT":0.00007842,"MEAN_MOTION_DDOT":0},{"OBJECT_NAME":"FLOCK 4BE-14","OBJECT_ID":"2024-149BB","EPOCH":"2026-07-16T18:27:36.920448","CLASSIFICATION_TYPE":"U","MEAN_MOTION":15.41887264,"ECCENTRICITY":0.00055298,"INCLINATION":97.369,"RA_OF_ASC_NODE":281.8103,"ARG_OF_PERICENTER":171.7333,"MEAN_ANOMALY":188.4006,"EPHEMERIS_TYPE":0,"NORAD_CAT_ID":60517,"ELEMENT_SET_NO":999,"REV_AT_EPOCH":10688,"BSTAR":0.00024668041,"MEAN_MOTION_DOT":0.00010395,"MEAN_MOTION_DDOT":0},{"OBJECT_NAME":"FLOCK 4BE-1","OBJECT_ID":"2024-149BC","EPOCH":"2026-07-17T18:59:10.824864","CLASSIFICATION_TYPE":"U","MEAN_MOTION":15.43568068,"ECCENTRICITY":0.00052539,"INCLINATION":97.3773,"RA_OF_ASC_NODE":284.2313,"ARG_OF_PERICENTER":167.7345,"MEAN_ANOMALY":192.4032,"EPHEMERIS_TYPE":0,"NORAD_CAT_ID":60518,"ELEMENT_SET_NO":999,"REV_AT_EPOCH":10709,"BSTAR":0.00022699703,"MEAN_MOTION_DOT":0.00010114,"MEAN_MOTION_DDOT":0},{"OBJECT_NAME":"FLOCK 4BE-28","OBJECT_ID":"2024-149BD","EPOCH":"2026-07-17T16:36:32.703552","CLASSIFICATION_TYPE":"U","MEAN_MOTION":15.46424923,"ECCENTRICITY":0.00053984,"INCLINATION":97.3741,"RA_OF_ASC_NODE":284.9557,"ARG_OF_PERICENTER":168.36,"MEAN_ANOMALY":191.7775,"EPHEMERIS_TYPE":0,"NORAD_CAT_ID":60519,"ELEMENT_SET_NO":999,"REV_AT_EPOCH":10715,"BSTAR":0.00047843545,"MEAN_MOTION_DOT":0.0002364,"MEAN_MOTION_DDOT":0},{"OBJECT_NAME":"FLOCK 4BE-5","OBJECT_ID":"2024-149CV","EPOCH":"2026-07-17T19:29:44.565504","CLASSIFICATION_TYPE":"U","MEAN_MOTION":15.41092972,"ECCENTRICITY":0.00042509,"INCLINATION":97.3836,"RA_OF_ASC_NODE":283.1243,"ARG_OF_PERICENTER":164.0794,"MEAN_ANOMALY":196.0587,"EPHEMERIS_TYPE":0,"NORAD_CAT_ID":60559,"ELEMENT_SET_NO":999,"REV_AT_EPOCH":10699,"BSTAR":0.00022910289,"MEAN_MOTION_DOT":0.00009393,"MEAN_MOTION_DDOT":0}]}
